[{"OBJECT_NAME":"KUIPER-00085","OBJECT_ID":"2025-151R","EPOCH":"2026-03-02T22:03:42.865632","MEAN_MOTION":14.79936172,"ECCENTRICITY":0.0001082,"INCLINATION":51.9034,"RA_OF_ASC_NODE":318.0655,"ARG_OF_PERICENTER":105.7675,"MEAN_ANOMALY":254.3407,"EPHEMERIS_TYPE":0,"CLASSIFICATION_TYPE":"U","NORAD_CAT_ID":64831,"ELEMENT_SET_NO":999,"REV_AT_EPOCH":3447,"BSTAR":0.00011916,"MEAN_MOTION_DOT":6.87e-6,"MEAN_MOTION_DDOT":0},{"OBJECT_NAME":"KUIPER-00086","OBJECT_ID":"2025-151S","EPOCH":"2026-03-03T17:15:05.398272","MEAN_MOTION":14.79931736,"ECCENTRICITY":7.02e-5,"INCLINATION":51.9044,"RA_OF_ASC_NODE":324.5007,"ARG_OF_PERICENTER":71.6219,"MEAN_ANOMALY":288.4819,"EPHEMERIS_TYPE":0,"CLASSIFICATION_TYPE":"U","NORAD_CAT_ID":64832,"ELEMENT_SET_NO":999,"REV_AT_EPOCH":3445,"BSTAR":-0.00021061,"MEAN_MOTION_DOT":-1.826e-5,"MEAN_MOTION_DDOT":0},{"OBJECT_NAME":"KUIPER-00087","OBJECT_ID":"2025-151T","EPOCH":"2026-03-03T18:00:01.999296","MEAN_MOTION":14.80322183,"ECCENTRICITY":9.11e-5,"INCLINATION":51.8994,"RA_OF_ASC_NODE":306.8502,"ARG_OF_PERICENTER":63.7121,"MEAN_ANOMALY":0.2193,"EPHEMERIS_TYPE":0,"CLASSIFICATION_TYPE":"U","NORAD_CAT_ID":64833,"ELEMENT_SET_NO":999,"REV_AT_EPOCH":527,"BSTAR":-0.001211,"MEAN_MOTION_DOT":-9.526e-5,"MEAN_MOTION_DDOT":0},{"OBJECT_NAME":"KUIPER-00089","OBJECT_ID":"2025-151U","EPOCH":"2026-03-02T22:05:18.158784","MEAN_MOTION":14.79798743,"ECCENTRICITY":4.7e-5,"INCLINATION":51.9011,"RA_OF_ASC_NODE":315.5084,"ARG_OF_PERICENTER":96.6678,"MEAN_ANOMALY":263.4338,"EPHEMERIS_TYPE":0,"CLASSIFICATION_TYPE":"U","NORAD_CAT_ID":64834,"ELEMENT_SET_NO":999,"REV_AT_EPOCH":3451,"BSTAR":-0.00093087,"MEAN_MOTION_DOT":-7.287e-5,"MEAN_MOTION_DDOT":0},{"OBJECT_NAME":"KUIPER-00090","OBJECT_ID":"2025-151V","EPOCH":"2026-03-03T16:08:55.104864","MEAN_MOTION":14.79933491,"ECCENTRICITY":6.91e-5,"INCLINATION":51.8997,"RA_OF_ASC_NODE":304.7308,"ARG_OF_PERICENTER":105.1357,"MEAN_ANOMALY":254.9682,"EPHEMERIS_TYPE":0,"CLASSIFICATION_TYPE":"U","NORAD_CAT_ID":64835,"ELEMENT_SET_NO":999,"REV_AT_EPOCH":3472,"BSTAR":0.00026048,"MEAN_MOTION_DOT":1.765e-5,"MEAN_MOTION_DDOT":0},{"OBJECT_NAME":"KUIPER-00091","OBJECT_ID":"2025-151W","EPOCH":"2026-03-02T23:49:20.476704","MEAN_MOTION":14.79797933,"ECCENTRICITY":0.00010338,"INCLINATION":51.9025,"RA_OF_ASC_NODE":312.7173,"ARG_OF_PERICENTER":101.8737,"MEAN_ANOMALY":258.2341,"EPHEMERIS_TYPE":0,"CLASSIFICATION_TYPE":"U","NORAD_CAT_ID":64836,"ELEMENT_SET_NO":999,"REV_AT_EPOCH":3455,"BSTAR":0.00070219909,"MEAN_MOTION_DOT":5.119e-5,"MEAN_MOTION_DDOT":0},{"OBJECT_NAME":"KUIPER-00092","OBJECT_ID":"2025-151X","EPOCH":"2026-03-03T17:26:42.405216","MEAN_MOTION":14.79965467,"ECCENTRICITY":9.07e-5,"INCLINATION":51.9019,"RA_OF_ASC_NODE":316.9639,"ARG_OF_PERICENTER":94.4891,"MEAN_ANOMALY":265.6175,"EPHEMERIS_TYPE":0,"CLASSIFICATION_TYPE":"U","NORAD_CAT_ID":64837,"ELEMENT_SET_NO":999,"REV_AT_EPOCH":3577,"BSTAR":0.00080888,"MEAN_MOTION_DOT":5.955e-5,"MEAN_MOTION_DDOT":0},{"OBJECT_NAME":"KUIPER-00093","OBJECT_ID":"2025-151Y","EPOCH":"2026-03-02T21:55:48.986688","MEAN_MOTION":14.7999203,"ECCENTRICITY":9.67e-5,"INCLINATION":51.9011,"RA_OF_ASC_NODE":323.0405,"ARG_OF_PERICENTER":90.5458,"MEAN_ANOMALY":269.5615,"EPHEMERIS_TYPE":0,"CLASSIFICATION_TYPE":"U","NORAD_CAT_ID":64838,"ELEMENT_SET_NO":999,"REV_AT_EPOCH":3440,"BSTAR":0.00077704,"MEAN_MOTION_DOT":5.716e-5,"MEAN_MOTION_DDOT":0},{"OBJECT_NAME":"KUIPER-00094","OBJECT_ID":"2025-151Z","EPOCH":"2026-03-03T14:23:55.834656","MEAN_MOTION":15.04209982,"ECCENTRICITY":0.000527,"INCLINATION":51.8886,"RA_OF_ASC_NODE":290.348,"ARG_OF_PERICENTER":265.037,"MEAN_ANOMALY":95.0001,"EPHEMERIS_TYPE":0,"CLASSIFICATION_TYPE":"U","NORAD_CAT_ID":64839,"ELEMENT_SET_NO":999,"REV_AT_EPOCH":3492,"BSTAR":0.00070023,"MEAN_MOTION_DOT":9.579e-5,"MEAN_MOTION_DDOT":0},{"OBJECT_NAME":"KUIPER-00081","OBJECT_ID":"2025-171A","EPOCH":"2026-03-03T17:04:49.139904","MEAN_MOTION":14.79983772,"ECCENTRICITY":3.36e-5,"INCLINATION":51.9004,"RA_OF_ASC_NODE":174.5072,"ARG_OF_PERICENTER":112.9516,"MEAN_ANOMALY":247.1482,"EPHEMERIS_TYPE":0,"CLASSIFICATION_TYPE":"U","NORAD_CAT_ID":65132,"ELEMENT_SET_NO":999,"REV_AT_EPOCH":3215,"BSTAR":0.0010003,"MEAN_MOTION_DOT":7.422e-5,"MEAN_MOTION_DDOT":0},{"OBJECT_NAME":"KUIPER-00088","OBJECT_ID":"2025-171B","EPOCH":"2026-03-03T18:00:01.999296","MEAN_MOTION":14.76386313,"ECCENTRICITY":4.51e-5,"INCLINATION":51.8995,"RA_OF_ASC_NODE":191.7255,"ARG_OF_PERICENTER":26.6633,"MEAN_ANOMALY":340.472,"EPHEMERIS_TYPE":0,"CLASSIFICATION_TYPE":"U","NORAD_CAT_ID":65133,"ELEMENT_SET_NO":999,"REV_AT_EPOCH":526,"BSTAR":0.0047441,"MEAN_MOTION_DOT":0.00033211,"MEAN_MOTION_DDOT":0},{"OBJECT_NAME":"KUIPER-00095","OBJECT_ID":"2025-171C","EPOCH":"2026-03-03T18:00:01.999296","MEAN_MOTION":14.79652421,"ECCENTRICITY":8.09e-5,"INCLINATION":51.8977,"RA_OF_ASC_NODE":172.0498,"ARG_OF_PERICENTER":142.8789,"MEAN_ANOMALY":337.9378,"EPHEMERIS_TYPE":0,"CLASSIFICATION_TYPE":"U","NORAD_CAT_ID":65134,"ELEMENT_SET_NO":999,"REV_AT_EPOCH":526,"BSTAR":0.01106,"MEAN_MOTION_DOT":0.00084598,"MEAN_MOTION_DDOT":0},{"OBJECT_NAME":"KUIPER-00096","OBJECT_ID":"2025-171D","EPOCH":"2026-03-03T12:46:19.286688","MEAN_MOTION":14.79938023,"ECCENTRICITY":5.43e-5,"INCLINATION":51.9011,"RA_OF_ASC_NODE":185.3123,"ARG_OF_PERICENTER":136.9355,"MEAN_ANOMALY":223.165,"EPHEMERIS_TYPE":0,"CLASSIFICATION_TYPE":"U","NORAD_CAT_ID":65135,"ELEMENT_SET_NO":999,"REV_AT_EPOCH":3198,"BSTAR":0.00067702,"MEAN_MOTION_DOT":4.944e-5,"MEAN_MOTION_DDOT":0},{"OBJECT_NAME":"KUIPER-00097","OBJECT_ID":"2025-171E","EPOCH":"2026-03-03T17:34:10.116192","MEAN_MOTION":14.7992982,"ECCENTRICITY":1.79e-5,"INCLINATION":51.9013,"RA_OF_ASC_NODE":187.0531,"ARG_OF_PERICENTER":59.129,"MEAN_ANOMALY":300.9689,"EPHEMERIS_TYPE":0,"CLASSIFICATION_TYPE":"U","NORAD_CAT_ID":65136,"ELEMENT_SET_NO":999,"REV_AT_EPOCH":3196,"BSTAR":0.00042086,"MEAN_MOTION_DOT":2.989e-5,"MEAN_MOTION_DDOT":0},{"OBJECT_NAME":"KUIPER-00098","OBJECT_ID":"2025-171F","EPOCH":"2026-03-03T14:15:48.128256","MEAN_MOTION":14.799526,"ECCENTRICITY":0.0001917,"INCLINATION":51.9007,"RA_OF_ASC_NODE":190.0409,"ARG_OF_PERICENTER":141.334,"MEAN_ANOMALY":218.776,"EPHEMERIS_TYPE":0,"CLASSIFICATION_TYPE":"U","NORAD_CAT_ID":65137,"ELEMENT_SET_NO":999,"REV_AT_EPOCH":3126,"BSTAR":0.00088989,"MEAN_MOTION_DOT":6.572e-5,"MEAN_MOTION_DDOT":0},{"OBJECT_NAME":"KUIPER-00099","OBJECT_ID":"2025-171G","EPOCH":"2026-03-03T16:58:18.846048","MEAN_MOTION":14.79847974,"ECCENTRICITY":4.98e-5,"INCLINATION":51.9022,"RA_OF_ASC_NODE":179.5335,"ARG_OF_PERICENTER":48.3898,"MEAN_ANOMALY":311.7107,"EPHEMERIS_TYPE":0,"CLASSIFICATION_TYPE":"U","NORAD_CAT_ID":65138,"ELEMENT_SET_NO":999,"REV_AT_EPOCH":3207,"BSTAR":0.00091267,"MEAN_MOTION_DOT":6.729e-5,"MEAN_MOTION_DDOT":0},{"OBJECT_NAME":"KUIPER-00100","OBJECT_ID":"2025-171H","EPOCH":"2026-03-03T14:35:12.776064","MEAN_MOTION":14.79943215,"ECCENTRICITY":5.51e-5,"INCLINATION":51.9026,"RA_OF_ASC_NODE":177.4451,"ARG_OF_PERICENTER":101.901,"MEAN_ANOMALY":258.2014,"EPHEMERIS_TYPE":0,"CLASSIFICATION_TYPE":"U","NORAD_CAT_ID":65139,"ELEMENT_SET_NO":999,"REV_AT_EPOCH":3209,"BSTAR":0.00030468,"MEAN_MOTION_DOT":2.103e-5,"MEAN_MOTION_DDOT":0}]
