KUIPER-00085            
1 64831U 25151R   26061.91924613  .00000687  00000+0  11916-3 0  9997
2 64831  51.9034 318.0655 0001082 105.7675 254.3407 14.79936172 34478
KUIPER-00086            
1 64832U 25151S   26062.71881248 -.00001826  00000+0 -21061-3 0  9993
2 64832  51.9044 324.5007 0000702  71.6219 288.4819 14.79931736 34450
KUIPER-00087            
1 64833U 25151T   26062.75002314 -.00009526  00000+0 -12110-2 0  9996
2 64833  51.8994 306.8502 0000911  63.7121   0.2193 14.80322183  5278
KUIPER-00089            
1 64834U 25151U   26061.92034906 -.00007287  00000+0 -93087-3 0  9992
2 64834  51.9011 315.5084 0000470  96.6678 263.4338 14.79798743 34514
KUIPER-00090            
1 64835U 25151V   26062.67286001  .00001765  00000+0  26048-3 0  9997
2 64835  51.8997 304.7308 0000691 105.1357 254.9682 14.79933491 34722
KUIPER-00091            
1 64836U 25151W   26061.99259811  .00005119  00000+0  70220-3 0  9999
2 64836  51.9025 312.7173 0001033 101.8737 258.2341 14.79797933 34550
KUIPER-00092            
1 64837U 25151X   26062.72687969  .00005955  00000+0  80888-3 0  9990
2 64837  51.9019 316.9639 0000907  94.4891 265.6175 14.79965467 35775
KUIPER-00093            
1 64838U 25151Y   26061.91376142  .00005716  00000+0  77704-3 0  9997
2 64838  51.9011 323.0405 0000967  90.5458 269.5615 14.79992030 34407
KUIPER-00094            
1 64839U 25151Z   26062.59995179  .00009579  00000+0  70023-3 0  9998
2 64839  51.8886 290.3480 0005270 265.0370  95.0001 15.04209982 34924
KUIPER-00081            
1 65132U 25171A   26062.71167986  .00007422  00000+0  10003-2 0  9994
2 65132  51.9004 174.5072 0000336 112.9516 247.1482 14.79983772 32157
KUIPER-00088            
1 65133U 25171B   26062.75002314  .00033211  00000+0  47441-2 0  9993
2 65133  51.8995 191.7255 0000451  26.6633 340.4720 14.76386313  5268
KUIPER-00095            
1 65134U 25171C   26062.75002314  .00084598  00000+0  11060-1 0  9995
2 65134  51.8977 172.0498 0000809 142.8789 337.9378 14.79652421  5269
KUIPER-00096            
1 65135U 25171D   26062.53216767  .00004944  00000+0  67702-3 0  9994
2 65135  51.9011 185.3123 0000543 136.9355 223.1650 14.79938023 31982
KUIPER-00097            
1 65136U 25171E   26062.73206153  .00002989  00000+0  42086-3 0  9990
2 65136  51.9013 187.0531 0000179  59.1290 300.9689 14.79929820 31965
KUIPER-00098            
1 65137U 25171F   26062.59430704  .00006572  00000+0  88989-3 0  9990
2 65137  51.9007 190.0409 0001917 141.3340 218.7760 14.79952600 31269
KUIPER-00099            
1 65138U 25171G   26062.70716257  .00006729  00000+0  91267-3 0  9991
2 65138  51.9022 179.5335 0000498  48.3898 311.7107 14.79847974 32070
KUIPER-00100            
1 65139U 25171H   26062.60778676  .00002103  00000+0  30468-3 0  9992
2 65139  51.9026 177.4451 0000551 101.9010 258.2014 14.79943215 32092
